IRIDIUM 63              
1 25286U 98021B   25345.09490983  .00000559  00000+0  18291-3 0  9996
2 25286  86.3984   7.9048 0002411  89.5522 270.5952 14.36733603449249
IRIDIUM 69              
1 25319U 98026A   25345.18746808  .00000765  00000+0  23083-3 0  9992
2 25319  86.3980  20.5950 0003854 127.7813 232.3737 14.41215234448556
IRIDIUM 71              
1 25320U 98026B   25345.17434917  .00000427  00000+0  12590-3 0  9994
2 25320  86.3979  15.2734 0001780 155.2891 204.8395 14.41316533449082
IRIDIUM 73              
1 25344U 98032C   25345.05597183  .00001045  00000+0  25386-3 0  9993
2 25344  86.4403 331.7046 0002915  95.3614 264.7924 14.51986135456220
IRIDIUM 82              
1 25467U 98051A   25345.15967962  .00057168  00000+0  10682-2 0  9996
2 25467  86.3615  21.9041 0060952 341.5597  18.3449 15.46447473451158
